[{"OBJECT_NAME":"ASTROCAST-0403","OBJECT_ID":"2023-001DG","EPOCH":"2026-03-09T19:45:35.762976","MEAN_MOTION":15.28004949,"ECCENTRICITY":0.00047706,"INCLINATION":97.5604,"RA_OF_ASC_NODE":161.3228,"ARG_OF_PERICENTER":338.0704,"MEAN_ANOMALY":22.033,"EPHEMERIS_TYPE":0,"CLASSIFICATION_TYPE":"U","NORAD_CAT_ID":55111,"ELEMENT_SET_NO":999,"REV_AT_EPOCH":12937,"BSTAR":0.0005131719,"MEAN_MOTION_DOT":0.00013959,"MEAN_MOTION_DDOT":0},{"OBJECT_NAME":"STARLINK-31038","OBJECT_ID":"2023-200S","EPOCH":"2026-03-09T22:00:01.999584","MEAN_MOTION":15.26845511,"ECCENTRICITY":0.00013714,"INCLINATION":42.9996,"RA_OF_ASC_NODE":167.3794,"ARG_OF_PERICENTER":283.6753,"MEAN_ANOMALY":224.0704,"EPHEMERIS_TYPE":0,"CLASSIFICATION_TYPE":"U","NORAD_CAT_ID":58605,"ELEMENT_SET_NO":999,"REV_AT_EPOCH":578,"BSTAR":-0.0004130566,"MEAN_MOTION_DOT":-0.00011358,"MEAN_MOTION_DDOT":0}]
